norad_id,name,regime,epoch,line1,line2,inclination,eccentricity,mean_motion,raan,arg_pericenter,mean_anomaly
26566,COSMOS 2374 (GLONASS),NSO,14111.36986815,1 26566U 00063C   14111.36986815  .00000079  00000-0  00000+0 0  2109\,2 26566 064.7041 104.1295 0062573 217.1636 228.5907 02.13100261105218,64.7041,0.0062573,2.13100261,104.1295,217.1636,228.5907
26566,COSMOS 2374 (GLONASS),NSO,14113.50629773,1 26566U 00063C   14113.50629773  .00000083  00000-0  00000+0 0  2110\,2 26566 064.7047 104.0566 0062543 217.1756 067.5587 02.13100332105252,64.7047,0.0062543,2.13100332,104.0566,217.1756,67.5587
26566,COSMOS 2374 (GLONASS),NSO,14115.56757235,1 26566U 00063C   14115.56757235  .00000068  00000-0  00000+0 0  2127\,2 26566 064.7052 103.9863 0062513 217.1792 208.8800 02.13100398105309,64.7052,0.0062513,2.13100398,103.9863,217.1792,208.88
26566,COSMOS 2374 (GLONASS),NSO,14118.41419177,1 26566U 00063C   14118.41419177  .00000029  00000-0  00000+0 0  2132\,2 26566 064.7060 103.8893 0062505 217.1547 232.7155 02.13100439105360,64.706,0.0062505,2.13100439,103.8893,217.1547,232.7155
26566,COSMOS 2374 (GLONASS),NSO,14121.33878120,1 26566U 00063C   14121.33878120  .00000017  00000-0  00000+0 0  2142\,2 26566 064.7070 103.7897 0062509 217.1229 316.3757 02.13100402105429,64.707,0.0062509,2.13100402,103.7897,217.1229,316.3757
26566,COSMOS 2374 (GLONASS),NSO,14124.18722572,1 26566U 00063C   14124.18722572  .00000041  00000-0  00000+0 0  2155\,2 26566 064.7079 103.6927 0062526 217.1107 341.6017 02.13100308105486,64.7079,0.0062526,2.13100308,103.6927,217.1107,341.6017
26566,COSMOS 2374 (GLONASS),NSO,14126.40336367,1 26566U 00063C   14126.40336367  .00000061  00000-0  00000+0 0  2168\,2 26566 064.7085 103.6171 0062543 217.0815 241.7641 02.13100217105536,64.7085,0.0062543,2.13100217,103.6171,217.0815,241.7641
26566,COSMOS 2374 (GLONASS),NSO,14132.30241130,1 26566U 00063C   14132.30241130  .00000052  00000-0  00000+0 0  2189\,2 26566 064.7101 103.4157 0062539 217.0417 087.3147 02.13100077105652,64.7101,0.0062539,2.13100077,103.4157,217.0417,87.3147
26566,COSMOS 2374 (GLONASS),NSO,14136.02063262,1 26566U 00063C   14136.02063262  .00000043  00000-0  00000+0 0  2191\,2 26566 064.7111 103.2887 0062497 217.0176 059.8037 02.13100130105737,64.7111,0.0062497,2.1310013,103.2887,217.0176,59.8037
26566,COSMOS 2374 (GLONASS),NSO,14138.39039817,1 26566U 00063C   14138.39039817  .00000052  00000-0  00000+0 0  2204\,2 26566 064.7116 103.2079 0062445 216.9886 077.8176 02.13100207105788,64.7116,0.0062445,2.13100207,103.2079,216.9886,77.8176
26566,COSMOS 2374 (GLONASS),NSO,14140.57412376,1 26566U 00063C   14140.57412376  .00000056  00000-0  00000+0 0  2217\,2 26566 064.7120 103.1334 0062407 216.9679 313.1013 02.13100288105835,64.712,0.0062407,2.13100288,103.1334,216.9679,313.1013
26566,COSMOS 2374 (GLONASS),NSO,14142.80416961,1 26566U 00063C   14142.80416961  .00000039  00000-0  00000+0 0  2221\,2 26566 064.7125 103.0573 0062379 216.9585 223.9099 02.13100360105886,64.7125,0.0062379,2.1310036,103.0573,216.9585,223.9099
26566,COSMOS 2374 (GLONASS),NSO,14144.94358067,1 26566U 00063C   14144.94358067  .00000008  00000-0  00000+0 0  2237\,2 26566 064.7130 102.9844 0062362 216.9365 065.2008 02.13100392105926,64.713,0.0062362,2.13100392,102.9844,216.9365,65.2008
26566,COSMOS 2374 (GLONASS),NSO,14147.30232605,1 26566U 00063C   14147.30232605 -.00000016  00000-0  00000+0 0  2240\,2 26566 064.7135 102.9040 0062352 216.9075 074.7641 02.13100395105972,64.7135,0.0062352,2.13100395,102.904,216.9075,74.7641
26566,COSMOS 2374 (GLONASS),NSO,14150.78170346,1 26566U 00063C   14150.78170346 -.00000001  00000-0  00000+0 0  2254\,2 26566 064.7145 102.7855 0062401 216.9064 224.0048 02.13100320106057,64.7145,0.0062401,2.1310032,102.7855,216.9064,224.0048
26566,COSMOS 2374 (GLONASS),NSO,14153.39717398,1 26566U 00063C   14153.39717398  .00000023  00000-0  00000+0 0  2262\,2 26566 064.7151 102.6965 0062405 216.8557 070.5410 02.13100212106108,64.7151,0.0062405,2.13100212,102.6965,216.8557,70.541
26566,COSMOS 2374 (GLONASS),NSO,14155.76164325,1 26566U 00063C   14155.76164325  .00000030  00000-0  00000+0 0  2270\,2 26566 064.7155 102.6158 0062422 216.8314 084.4913 02.13100138106150,64.7155,0.0062422,2.13100138,102.6158,216.8314,84.4913
26566,COSMOS 2374 (GLONASS),NSO,14158.12082331,1 26566U 00063C   14158.12082331  .00000022  00000-0  00000+0 0  2281\,2 26566 064.7160 102.5351 0062442 216.8347 094.3552 02.13100095106205,64.716,0.0062442,2.13100095,102.5351,216.8347,94.3552
26566,COSMOS 2374 (GLONASS),NSO,14160.64906726,1 26566U 00063C   14160.64906726  .00000010  00000-0  00000+0 0  2292\,2 26566 064.7167 102.4487 0062442 216.8382 233.9171 02.13100073106260,64.7167,0.0062442,2.13100073,102.4487,216.8382,233.9171
26566,COSMOS 2374 (GLONASS),NSO,14163.25701368,1 26566U 00063C   14163.25701368  .00000007  00000-0  00000+0 0  2305\,2 26566 064.7172 102.3596 0062409 216.8279 074.6352 02.13100118106311,64.7172,0.0062409,2.13100118,102.3596,216.8279,74.6352
26566,COSMOS 2374 (GLONASS),NSO,14166.09754889,1 26566U 00063C   14166.09754889  .00000018  00000-0  00000+0 0  2319\,2 26566 064.7177 102.2626 0062389 216.8322 093.7704 02.13100214106371,64.7177,0.0062389,2.13100214,102.2626,216.8322,93.7704
26566,COSMOS 2374 (GLONASS),NSO,14168.14998822,1 26566U 00063C   14168.14998822  .00000019  00000-0  00000+0 0  2326\,2 26566 064.7181 102.1925 0062368 216.8194 228.3294 02.13100278106427,64.7181,0.0062368,2.13100278,102.1925,216.8194,228.3294
26566,COSMOS 2374 (GLONASS),NSO,14170.77003380,1 26566U 00063C   14170.77003380 -.00000005  00000-0  00000+0 0  2331\,2 26566 064.7187 102.1031 0062341 216.8165 078.3230 02.13100355106474,64.7187,0.0062341,2.13100355,102.1031,216.8165,78.323
26566,COSMOS 2374 (GLONASS),NSO,14173.12437310,1 26566U 00063C   14173.12437310 -.00000038  00000-0  00000+0 0  2344\,2 26566 064.7192 102.0228 0062327 216.7629 084.5296 02.13100401106524,64.7192,0.0062327,2.13100401,102.0228,216.7629,84.5296
26566,COSMOS 2374 (GLONASS),NSO,14176.26991427,1 26566U 00063C   14176.26991427 -.00000048  00000-0  00000+0 0  2358\,2 26566 064.7199 101.9156 0062354 216.7132 337.7123 02.13100377106599,64.7199,0.0062354,2.13100377,101.9156,216.7132,337.7123
26566,COSMOS 2374 (GLONASS),NSO,14178.49433414,1 26566U 00063C   14178.49433414 -.00000028  00000-0  00000+0 0  2361\,2 26566 064.7205 101.8397 0062372 216.6801 244.2319 02.13100316106643,64.7205,0.0062372,2.13100316,101.8397,216.6801,244.2319
26566,COSMOS 2374 (GLONASS),NSO,14180.63036029,1 26566U 00063C   14180.63036029 -.00000007  00000-0  00000+0 0  2379\,2 26566 064.7210 101.7668 0062388 216.6325 082.9539 02.13100244106682,64.721,0.0062388,2.13100244,101.7668,216.6325,82.9539
26566,COSMOS 2374 (GLONASS),NSO,14182.99174569,1 26566U 00063C   14182.99174569  .00000001  00000-0  00000+0 0  2386\,2 26566 064.7215 101.6861 0062411 216.5717 094.5753 02.13100164106736,64.7215,0.0062411,2.13100164,101.6861,216.5717,94.5753
26566,COSMOS 2374 (GLONASS),NSO,14185.99522792,1 26566U 00063C   14185.99522792 -.00000008  00000-0  00000+0 0  2393\,2 26566 064.7222 101.5833 0062428 216.5449 238.7520 02.13100116106801,64.7222,0.0062428,2.13100116,101.5833,216.5449,238.752
26566,COSMOS 2374 (GLONASS),NSO,14188.14083711,1 26566U 00063C   14188.14083711 -.00000015  00000-0  00000+0 0  2406\,2 26566 064.7228 101.5099 0062414 216.5130 084.8071 02.13100113106845,64.7228,0.0062414,2.13100113,101.5099,216.513,84.8071
26566,COSMOS 2374 (GLONASS),NSO,14192.32493198,1 26566U 00063C   14192.32493198 -.00000006  00000-0  00000+0 0  2416\,2 26566 064.7239 101.3668 0062381 216.4671 054.7170 02.13100187106936,64.7239,0.0062381,2.13100187,101.3668,216.4671,54.717
26566,COSMOS 2374 (GLONASS),NSO,14194.91825472,1 26566U 00063C   14194.91825472  .00000004  00000-0  00000+0 0  2425\,2 26566 064.7244 101.2781 0062351 216.4321 244.2408 02.13100275106990,64.7244,0.0062351,2.13100275,101.2781,216.4321,244.2408
26566,COSMOS 2374 (GLONASS),NSO,14197.53551885,1 26566U 00063C   14197.53551885 -.00000011  00000-0  00000+0 0  2430\,2 26566 064.7251 101.1887 0062319 216.3847 092.1449 02.13100358107044,64.7251,0.0062319,2.13100358,101.1887,216.3847,92.1449
26566,COSMOS 2374 (GLONASS),NSO,14199.89985715,1 26566U 00063C   14199.89985715 -.00000042  00000-0  00000+0 0  2449\,2 26566 064.7257 101.1081 0062281 216.2153 106.1379 02.13100400107094,64.7257,0.0062281,2.131004,101.1081,216.2153,106.1379
26566,COSMOS 2374 (GLONASS),NSO,14203.83842612,1 26566U 00063C   14203.83842612 -.00000052  00000-0  00000+0 0  2459\,2 26566 064.7268 100.9739 0062321 216.1492 247.7151 02.13100382107182,64.7268,0.0062321,2.13100382,100.9739,216.1492,247.7151
26566,COSMOS 2374 (GLONASS),NSO,14206.30251311,1 26566U 00063C   14206.30251311 -.00000026  00000-0  00000+0 0  2466\,2 26566 064.7276 100.8898 0062384 216.3010 337.9123 02.13100308107238,64.7276,0.0062384,2.13100308,100.8898,216.301,337.9123
26566,COSMOS 2374 (GLONASS),NSO,14208.35123113,1 26566U 00063C   14208.35123113 -.00000006  00000-0  00000+0 0  2470\,2 26566 064.7282 100.8199 0062394 216.2087 109.6997 02.13100217107279,64.7282,0.0062394,2.13100217,100.8199,216.2087,109.6997
26566,COSMOS 2374 (GLONASS),NSO,14212.61858612,1 26566U 00063C   14212.61858612 -.00000120  00000-0  10000-3 0  2497\,2 26566 064.7300 100.6744 0062331 216.1774 143.4785 02.13099460107376,64.73,0.0062331,2.1309946,100.6744,216.1774,143.4785
26566,COSMOS 2374 (GLONASS),NSO,14212.76031517,1 26566U 00063C   14212.76031517 -.00000003  00000-0  00000+0 0  2507\,2 26566 064.7295 100.6690 0062434 216.1758 252.2035 02.13100115107372,64.7295,0.0062434,2.13100115,100.669,216.1758,252.2035
26566,COSMOS 2374 (GLONASS),NSO,14214.78815763,1 26566U 00063C   14214.78815763 -.00000008  00000-0  00000+0 0  2510\,2 26566 064.7302 100.5995 0062437 216.1737 007.8833 02.13100101107418,64.7302,0.0062437,2.13100101,100.5995,216.1737,7.8833
